STARLINK-11078 [DTC]    
1 58710U 24002F   26178.03499209  .00001176  00000+0  14565-4 0  9998
2 58710  53.1585  94.8158 0001058  62.5015 297.6111 15.69698160143611
STARLINK-31031          
1 58711U 24002G   26178.43191478 -.00000338  00000+0  11307-5 0  9992
2 58711  53.1598  79.0480 0001004 103.6733 256.4381 15.34390706138831
STARLINK-31029          
1 58712U 24002H   26178.45684001 -.00001762  00000+0 -47370-4 0  9995
2 58712  53.1603  79.9071 0001509  89.6777 270.4397 15.30195116138821
STARLINK-30973          
1 58713U 24002J   26178.46317309 -.00000255  00000+0  35072-5 0  9993
2 58713  53.1611  79.9432 0001419 105.4453 254.6705 15.30188695138821
STARLINK-31100          
1 58714U 24002K   26178.00913955  .00011213  00000+0  39106-3 0  9998
2 58714  53.1602  82.0840 0001622  80.7847 279.3337 15.30123072138753
STARLINK-31102          
1 58715U 24002L   26178.01174136 -.00001497  00000+0 -33195-4 0  9998
2 58715  53.1627  81.3976 0001385  98.9211 261.1949 15.34387235138761
STARLINK-31098          
1 58716U 24002M   26178.01124533 -.00003352  00000+0 -10108-3 0  9995
2 58716  53.1600  82.0948 0001494  82.4400 277.6770 15.30204269138753
STARLINK-31093          
1 58717U 24002N   26178.01863483 -.00001633  00000+0 -43043-4 0  9995
2 58717  53.1601  82.1565 0001237  82.6526 277.4616 15.30188380138759
STARLINK-31097          
1 58718U 24002P   26178.01546236 -.00001690  00000+0 -44943-4 0  9993
2 58718  53.1606  82.1229 0001495  70.8156 289.3006 15.30196090138758
STARLINK-31051          
1 58719U 24002Q   26178.02074169 -.00001599  00000+0 -41872-4 0  9992
2 58719  53.1605  82.1534 0001110 101.6356 258.4769 15.30190512138752
STARLINK-31027          
1 58720U 24002R   26178.37672046  .00112837  00000+0  79790-3 0  9995
2 58720  53.1413  51.2649 0005452   7.6281 352.4820 15.73174810139215
STARLINK-30972          
1 58721U 24002S   26178.46422700 -.00000877  00000+0 -17505-4 0  9995
2 58721  53.1609  79.9443 0001484  97.4019 262.7150 15.30188386138820
STARLINK-31040          
1 58722U 24002T   26178.45295727 -.00000455  00000+0 -23400-5 0  9996
2 58722  53.1597  79.1678 0001262  76.9480 283.1663 15.34400661138831
STARLINK-31033          
1 58723U 24002U   26178.01441021 -.00001380  00000+0 -34487-4 0  9993
2 58723  53.1607  82.1124 0001108  89.4257 270.6871 15.30189597138755
STARLINK-30893          
1 58724U 24002V   26178.44244863 -.00000928  00000+0 -16352-4 0  9994
2 58724  53.1609  79.1088 0001319 101.9796 258.1354 15.34383204138825
STARLINK-30856          
1 58725U 24002W   26178.01018915 -.00002865  00000+0 -84660-4 0  9994
2 58725  53.1597  82.0864 0000952  86.0365 274.0745 15.30195905138752
UNICORN-2L              
1 58727U 23185R   26178.32953343  .00008806  00000+0  39481-3 0  9993
2 58727  97.5398 252.2020 0011274 275.9421  84.0529 15.21406068136337
STARLINK-31115          
1 58729U 24005B   26178.11224624 -.00001013  00000+0 -27311-4 0  9992
2 58729  43.0027 322.1926 0000067 311.0867  48.9979 15.27567464137164
STARLINK-31180          
1 58732U 24005E   26177.75190121 -.00000171  00000+0  33089-5 0  9992
2 58732  43.0011 323.8112 0001333 272.3793  87.6906 15.27568387137110
STARLINK-31164          
1 58733U 24005F   26178.11980697 -.00003570  00000+0 -12026-3 0  9992
2 58733  43.0049 321.4056 0002097 259.3609 100.7007 15.27574641137177
STARLINK-31152          
1 58734U 24005G   26178.12367956 -.00000244  00000+0  65391-6 0  9991
2 58734  43.0033 321.4337 0001247 258.4423 101.6289 15.27553985137184
STARLINK-31157          
1 58735U 24005H   26178.12752552 -.00000591  00000+0 -11945-4 0  9992
2 58735  43.0052 321.4619 0001463 265.1173  94.9512 15.27559662137187
STARLINK-31076          
1 58736U 24005J   26177.80441876  .00000070  00000+0  12064-4 0  9994
2 58736  43.0052 323.3357 0001702 263.3946  96.6712 15.27586111137171
STARLINK-31101          
1 58737U 24005K   26177.81471070 -.00001085  00000+0 -29905-4 0  9996
2 58737  43.0053 323.4095 0001759 258.8218 101.2436 15.27575920137123
STARLINK-31108          
1 58738U 24005L   26177.74289511 -.00001919  00000+0 -60185-4 0  9997
2 58738  43.0045 323.7312 0002162 265.5985  94.4620 15.27586748137112
STARLINK-31042          
1 58739U 24005M   26177.75319035 -.00002258  00000+0 -72577-4 0  9999
2 58739  43.0036 323.8029 0001263 275.5994  84.4713 15.27570756137126
STARLINK-31159          
1 58740U 24005N   26178.11851955 -.00003138  00000+0 -10453-3 0  9996
2 58740  43.0033 321.3897 0000917 285.6827  74.3924 15.27588624137274
STARLINK-31148          
1 58741U 24005P   26178.12623262  .00000766  00000+0  37384-4 0  9991
2 58741  43.0064 321.4653 0001883 283.8316  76.2326 15.27570055137182
STARLINK-31151          
1 58742U 24005Q   26177.80700781 -.00000336  00000+0 -26842-5 0  9991
2 58742  43.0036 323.3703 0001479 274.2409  85.8274 15.27578225137227
STARLINK-31156          
1 58743U 24005R   26177.74546280 -.00001749  00000+0 -54038-4 0  9993
2 58743  43.0027 323.7673 0001628 264.5787  95.4879 15.27588489137170
