OBJECT_NAME,OBJECT_ID,EPOCH,MEAN_MOTION,ECCENTRICITY,INCLINATION,RA_OF_ASC_NODE,ARG_OF_PERICENTER,MEAN_ANOMALY,EPHEMERIS_TYPE,CLASSIFICATION_TYPE,NORAD_CAT_ID,ELEMENT_SET_NO,REV_AT_EPOCH,BSTAR,MEAN_MOTION_DOT,MEAN_MOTION_DDOT
STARLINK-11078 [DTC],2024-002F,2026-06-27T00:50:23.316576,15.69698160,.00010583,53.1585,94.8158,62.5015,297.6111,0,U,58710,999,14361,.14565335E-4,.1176E-4,0
STARLINK-31031,2024-002G,2026-06-27T10:21:57.436992,15.34390706,.0001004,53.1598,79.0480,103.6733,256.4381,0,U,58711,999,13883,.11307E-5,-.338E-5,0
STARLINK-31029,2024-002H,2026-06-27T10:57:50.976864,15.30195116,.0001509,53.1603,79.9071,89.6777,270.4397,0,U,58712,999,13882,-.4737E-4,-.1762E-4,0
STARLINK-30973,2024-002J,2026-06-27T11:06:58.154976,15.30188695,.0001419,53.1611,79.9432,105.4453,254.6705,0,U,58713,999,13882,.35072E-5,-.255E-5,0
STARLINK-31100,2024-002K,2026-06-27T00:13:09.657120,15.30123072,.00016227,53.1602,82.0840,80.7847,279.3337,0,U,58714,999,13875,.39106178E-3,.11213E-3,0
STARLINK-31102,2024-002L,2026-06-27T00:16:54.453504,15.34387235,.00013854,53.1627,81.3976,98.9211,261.1949,0,U,58715,999,13876,-.3319514E-4,-.1497E-4,0
STARLINK-31098,2024-002M,2026-06-27T00:16:11.596512,15.30204269,.00014943,53.1600,82.0948,82.4400,277.6770,0,U,58716,999,13875,-.10107919E-3,-.3352E-4,0
STARLINK-31093,2024-002N,2026-06-27T00:26:50.049312,15.30188380,.00012375,53.1601,82.1565,82.6526,277.4616,0,U,58717,999,13875,-.43042752E-4,-.1633E-4,0
STARLINK-31097,2024-002P,2026-06-27T00:22:15.947904,15.30196090,.00014954,53.1606,82.1229,70.8156,289.3006,0,U,58718,999,13875,-.44943269E-4,-.169E-4,0
STARLINK-31051,2024-002Q,2026-06-27T00:29:52.082016,15.30190512,.00011105,53.1605,82.1534,101.6356,258.4769,0,U,58719,999,13875,-.4187172E-4,-.1599E-4,0
STARLINK-31027,2024-002R,2026-06-27T09:02:28.647744,15.73174810,.0005452,53.1413,51.2649,7.6281,352.4820,0,U,58720,999,13921,.7979E-3,.112837E-2,0
STARLINK-30972,2024-002S,2026-06-27T11:08:29.212800,15.30188386,.0001484,53.1609,79.9443,97.4019,262.7150,0,U,58721,999,13882,-.17505E-4,-.877E-5,0
STARLINK-31040,2024-002T,2026-06-27T10:52:15.508128,15.34400661,.0001262,53.1597,79.1678,76.9480,283.1663,0,U,58722,999,13883,-.234E-5,-.455E-5,0
STARLINK-31033,2024-002U,2026-06-27T00:20:45.042144,15.30189597,.00011088,53.1607,82.1124,89.4257,270.6871,0,U,58723,999,13875,-.34487479E-4,-.138E-4,0
STARLINK-30893,2024-002V,2026-06-27T10:37:07.561632,15.34383204,.0001319,53.1609,79.1088,101.9796,258.1354,0,U,58724,999,13882,-.16352E-4,-.928E-5,0
STARLINK-30856,2024-002W,2026-06-27T00:14:40.342560,15.30195905,.00009521,53.1597,82.0864,86.0365,274.0745,0,U,58725,999,13875,-.84659615E-4,-.2865E-4,0
UNICORN-2L,2023-185R,2026-06-27T07:54:31.688352,15.21406068,.0011274,97.5398,252.2020,275.9421,84.0529,0,U,58727,999,13633,.39481E-3,.8806E-4,0
STARLINK-31115,2024-005B,2026-06-27T02:41:38.075136,15.27567464,.00000671,43.0027,322.1926,311.0867,48.9979,0,U,58729,999,13716,-.27311007E-4,-.1013E-4,0
STARLINK-31180,2024-005E,2026-06-26T18:02:44.264544,15.27568387,.00013334,43.0011,323.8112,272.3793,87.6906,0,U,58732,999,13711,.3308877E-5,-.171E-5,0
STARLINK-31164,2024-005F,2026-06-27T02:52:31.322208,15.27574641,.00020971,43.0049,321.4056,259.3609,100.7007,0,U,58733,999,13717,-.12025729E-3,-.357E-4,0
STARLINK-31152,2024-005G,2026-06-27T02:58:05.913984,15.27553985,.00012471,43.0033,321.4337,258.4423,101.6289,0,U,58734,999,13718,.65391E-6,-.244E-5,0
STARLINK-31157,2024-005H,2026-06-27T03:03:38.204928,15.27559662,.00014634,43.0052,321.4619,265.1173,94.9512,0,U,58735,999,13718,-.11944662E-4,-.591E-5,0
STARLINK-31076,2024-005J,2026-06-26T19:18:21.780864,15.27586111,.00017028,43.0052,323.3357,263.3946,96.6712,0,U,58736,999,13717,.12064055E-4,.7E-6,0
STARLINK-31101,2024-005K,2026-06-26T19:33:11.004480,15.27575920,.00017595,43.0053,323.4095,258.8218,101.2436,0,U,58737,999,13712,-.29905069E-4,-.1085E-4,0
STARLINK-31108,2024-005L,2026-06-26T17:49:46.137504,15.27586748,.00021624,43.0045,323.7312,265.5985,94.4620,0,U,58738,999,13711,-.60184865E-4,-.1919E-4,0
STARLINK-31042,2024-005M,2026-06-26T18:04:35.646240,15.27570756,.00012633,43.0036,323.8029,275.5994,84.4713,0,U,58739,999,13712,-.72577103E-4,-.2258E-4,0
STARLINK-31159,2024-005N,2026-06-27T02:50:40.089120,15.27588624,.00009176,43.0033,321.3897,285.6827,74.3924,0,U,58740,999,13727,-.10453033E-3,-.3138E-4,0
STARLINK-31148,2024-005P,2026-06-27T03:01:46.498368,15.27570055,.00018839,43.0064,321.4653,283.8316,76.2326,0,U,58741,999,13718,.37383878E-4,.766E-5,0
STARLINK-31151,2024-005Q,2026-06-26T19:22:05.474784,15.27578225,.00014797,43.0036,323.3703,274.2409,85.8274,0,U,58742,999,13722,-.2684164E-5,-.336E-5,0
STARLINK-31156,2024-005R,2026-06-26T17:53:27.985920,15.27588489,.00016284,43.0027,323.7673,264.5787,95.4879,0,U,58743,999,13717,-.54037564E-4,-.1749E-4,0
